{
    "links": {
        "self": "http://www.neowsapp.com/rest/v1/neo/3550046?api_key=iIulBulltgU6a56xZRHN4H3l9WmuAYTsLGpBGhQ2"
    },
    "id": "3550046",
    "neo_reference_id": "3550046",
    "name": "(2010 UC7)",
    "designation": "2010 UC7",
    "nasa_jpl_url": "http://ssd.jpl.nasa.gov/sbdb.cgi?sstr=3550046",
    "absolute_magnitude_h": 24.7,
    "estimated_diameter": {
        "kilometers": {
            "estimated_diameter_min": 0.0305179233,
            "estimated_diameter_max": 0.0682401509
        },
        "meters": {
            "estimated_diameter_min": 30.5179232594,
            "estimated_diameter_max": 68.2401509401
        },
        "miles": {
            "estimated_diameter_min": 0.0189629525,
            "estimated_diameter_max": 0.0424024508
        },
        "feet": {
            "estimated_diameter_min": 100.1244233463,
            "estimated_diameter_max": 223.8850168104
        }
    },
    "is_potentially_hazardous_asteroid": false,
    "close_approach_data": [
        {
            "close_approach_date": "2010-11-02",
            "close_approach_date_full": "2010-Nov-02 15:50",
            "epoch_date_close_approach": 1288713000000,
            "relative_velocity": {
                "kilometers_per_second": "13.908498144",
                "kilometers_per_hour": "50070.5933182733",
                "miles_per_hour": "31111.9194982349"
            },
            "miss_distance": {
                "astronomical": "0.0191278468",
                "lunar": "7.4407324052",
                "kilometers": "2861485.138966316",
                "miles": "1778044.4163385208"
            },
            "orbiting_body": "Earth"
        }
    ],
    "orbital_data": {
        "orbit_id": "11",
        "orbit_determination_date": "2017-04-06 08:56:08",
        "first_observation_date": "2010-10-28",
        "last_observation_date": "2010-11-03",
        "data_arc_in_days": 6,
        "observations_used": 44,
        "orbit_uncertainty": "8",
        "minimum_orbit_intersection": ".00425412",
        "jupiter_tisserand_invariant": "3.749",
        "epoch_osculation": "2455499.5",
        "eccentricity": ".567270919960296",
        "semi_major_axis": "1.883712088064142",
        "inclination": "5.18236658953334",
        "ascending_node_longitude": "224.3906093070326",
        "orbital_period": "944.3222311964917",
        "perihelion_distance": ".8151369989276661",
        "perihelion_argument": "236.6882208243115",
        "aphelion_distance": "2.952287177200618",
        "perihelion_time": "2455544.404937204573",
        "mean_anomaly": "342.8810792973034",
        "mean_motion": ".381225802069561",
        "equinox": "J2000",
        "orbit_class": {
            "orbit_class_type": "APO",
            "orbit_class_description": "Near-Earth asteroid orbits which cross the Earth’s orbit similar to that of 1862 Apollo",
            "orbit_class_range": "a (semi-major axis) > 1.0 AU; q (perihelion) < 1.017 AU"
        }
    },
    "is_sentry_object": false
}